package sgp4

import "testing"

var weatherNOAA = `METEOSAT-7              
1 24932U 97049B   15054.07770781  .00000033  00000-0  00000+0 0  9996
2 24932   9.4993  45.4833 0001165 225.8353 326.8237  1.00274303 64005
NOAA 15                 
1 25338U 98030A   15054.55546828  .00000206  00000-0  10575-3 0  9998
2 25338  98.7693  53.1435 0011589 135.4928  13.9164 14.25569605872657
METEOSAT-8 (MSG-1)      
1 27509U 02040B   15054.09694367 -.00000005  00000-0  00000+0 0  9993
2 27509   3.3281  61.4935 0001732 187.4211 302.2282  1.00268488 45811
KALPANA-1 (METSAT 1)    
1 27525U 02043A   15054.00830166 -.00000103  00000-0  00000+0 0  9993
2 27525   4.8680  61.3958 0013690 215.8328 312.1648  1.00271961 45617
INSAT-3A                
1 27714U 03013A   15054.57967718 -.00000283  00000-0  00000+0 0  9996
2 27714   0.0374 248.7389 0001969 157.0860  49.4698  1.00272042 43522
HIMAWARI-6 (MTSAT-1R)   
1 28622U 05006A   15053.69668289 -.00000306  00000-0  00000+0 0  9998
2 28622   0.0088 313.9878 0003866  29.9897 199.0055  1.00270295 36570
NOAA 18                 
1 28654U 05018A   15054.51746557  .00000160  00000-0  11241-3 0  9993
2 28654  99.1769  44.4362 0013300 279.3606 233.3097 14.12153977503039
METEOSAT-9 (MSG-2)      
1 28912U 05049B   15053.79565715  .00000037  00000-0  00000+0 0  9998
2 28912   0.6234  48.7100 0000491 213.5739 185.7449  1.00268168 33661
MTSAT-2                 
1 28937U 06004A   15051.57542615 -.00000266  00000-0  00000+0 0  9990
2 28937   0.0377 233.5240 0003753  91.9954 176.7976  1.00272381 32958
FORMOSAT-3 FM6          
1 29047U 06011A   15053.73309507  .00000230  00000-0  10744-3 0  9992
2 29047  71.9797 111.9350 0050374 172.4111 187.7799 14.28252166464043
FORMOSAT-3 FM1          
1 29048U 06011B   15053.69257510  .00000322  00000-0  14452-3 0  9996
2 29048  71.9704  25.0837 0042484 125.5184 291.3155 14.28222369466524
FORMOSAT-3 FM5          
1 29049U 06011C   15053.70115720  .00000400  00000-0  17577-3 0  9993
2 29049  72.0212 185.7398 0034615 171.1515 286.9090 14.28230851462292
FORMOSAT-3 FM3          
1 29050U 06011D   15054.52825232  .00001424  00000-0  31737-3 0  9993
2 29050  72.0175 166.9096 0052848 251.3539 108.1871 14.57572764473448
FORMOSAT-3 FM4          
1 29051U 06011E   15053.64236699  .00000319  00000-0  14074-3 0  9996
2 29051  72.0059  91.3856 0067401  40.2924 320.3178 14.28230337464879
FORMOSAT-3 FM2          
1 29052U 06011F   15054.26828275  .00000246  00000-0  11402-3 0  9994
2 29052  72.0358 158.6045 0038897 133.5508 255.8781 14.28335171463277
GOES 13                 
1 29155U 06018A   15053.29244097 -.00000273  00000-0  00000+0 0  9990
2 29155   0.4153 270.1638 0003193 128.8280 142.6252  1.00275828 32076
METOP-A                 
1 29499U 06044A   15053.72879515  .00000102  00000-0  66791-4 0  9991
2 29499  98.6901 114.9445 0001934 123.7781 346.4647 14.21487206433023
FENGYUN 2D              
1 29640U 06053A   15054.81253840 -.00000226  00000-0  10000-3 0  9996
2 29640   2.8616  68.8419 0001149 104.7029 358.9028  1.00273540 30134
FENGYUN 3A              
1 32958U 08026A   15054.76997335  .00000099  00000-0  67066-4 0  9994
2 32958  98.5197 109.6670 0009221 205.0946 154.9786 14.19528766349530
FENGYUN 2E              
1 33463U 08066A   15052.94809030 -.00000353  00000-0  10000-3 0  9991
2 33463   2.3911  58.1893 0000134 150.4280  28.4952  1.00264527 22651
NOAA 19                 
1 33591U 09005A   15054.52451814  .00000133  00000-0  97321-4 0  9993
2 33591  98.9775   4.2134 0014960 128.4397   3.0048 14.11879890311453
GOES 14                 
1 35491U 09033A   15054.60690321 -.00000119  00000-0  00000+0 0  9990
2 35491   0.0263 159.4787 0001132  76.1503  31.6433  1.00271179 20735
METEOR-M 1              
1 35865U 09049A   15054.71337298  .00000118  00000-0  72714-4 0  9999
2 35865  98.5157  99.0410 0003179  84.1981 275.9557 14.21993534282089
GOES 15                 
1 36411U 10008A   15053.50195326  .00000065  00000-0  00000+0 0  9999
2 36411   0.0684 249.7615 0002683 103.0328 204.5625  1.00270650 18245
COMS 1                  
1 36744U 10032A   15054.68271780 -.00000370  00000-0  10000-3 0  9999
2 36744   0.0287  68.0860 0000817 219.0252 240.0882  1.00270665 17221
FENGYUN 3B              
1 37214U 10059A   15054.78753382  .00000096  00000-0  66887-4 0  9994
2 37214  98.8803   8.4351 0001665  95.2684 264.8683 14.19559564223034
ELEKTRO-L 1 (GOMS 2)    
1 37344U 11001A   15054.12927103 -.00000121  00000-0  00000+0 0  9998
2 37344   0.7430  81.0833 0001797 165.3844  28.5793  1.00272129 15032
SUOMI NPP               
1 37849U 11061A   15054.82826632  .00000076  00000-0  56840-4 0  9992
2 37849  98.6885 356.2158 0001611  86.0599 349.8488 14.19561811172295
FENGYUN 2F              
1 38049U 12002A   15053.85570772 -.00000381  00000-0  10000-3 0  9991
2 38049   0.1655 353.9026 0002357 132.3702  86.1426  1.00264449 11454
METEOSAT-10 (MSG-3)     
1 38552U 12035B   15053.79544372 -.00000024  00000-0  00000+0 0  9995
2 38552   0.5997 139.3499 0000738 220.6293  79.0683  1.00280382  9786
METOP-B                 
1 38771U 12049A   15054.82288877  .00000101  00000-0  66408-4 0  9997
2 38771  98.7116 116.3307 0001972 137.1124 338.8886 14.21472301126311
FENGYUN 3C              
1 39260U 13052A   15054.81886104  .00000095  00000-0  65776-4 0  9991
2 39260  98.7421 128.4993 0000433 117.3752 242.7460 14.19534410 73585
METEOR-M 2              
1 40069U 14037A   15054.83358812  .00000016  00000-0  27839-4 0  9997
2 40069  98.7736 110.4313 0006408 124.0576 236.1207 14.20597673 32670
HIMAWARI 8              
1 40267U 14060A   15053.69668289 -.00000301  00000-0  00000+0 0  9992
2 40267   0.0268 294.4274 0000573 355.3126 253.9609  1.00272296  1429
FENGYUN 2G              
1 40367U 14090A   15054.04814199 -.00000328  00000-0  00000+0 0  9998
2 40367   2.1763 278.0713 0004652 243.1176 108.2262  1.00279953   603`

func TestRLE(t *testing.T) {
	s, err := NewSatelliteFromTLE("1 28654U 05018A   15053.51663152  .00000205  00000-0  13711-3 0  9995\n2 28654  99.1770  43.4120 0013283 282.3899 185.0991 14.12152816502890\n", WGS72)
	if err != nil {
		t.Error(err.Error())
	}
	s.Name = "NOAA 18"

}

func TestInvalidRLE(t *testing.T) {
	_, err := NewSatelliteFromTLE("2 28654  99.1770  43.4120 0013283 282.3899 185.0991 14.12152816502890\n", WGS72)
	if err != SyntaxError {
		t.Error("this should return a SyntaxError")
	}
}
